OBJECT_NAME,OBJECT_ID,EPOCH,MEAN_MOTION,ECCENTRICITY,INCLINATION,RA_OF_ASC_NODE,ARG_OF_PERICENTER,MEAN_ANOMALY,EPHEMERIS_TYPE,CLASSIFICATION_TYPE,NORAD_CAT_ID,ELEMENT_SET_NO,REV_AT_EPOCH,BSTAR,MEAN_MOTION_DOT,MEAN_MOTION_DDOT
STARLINK-4117,2022-083AP,2026-07-07T04:00:03.000096,15.16223469,.0000995,53.1609,332.6779,124.4007,235.8671,0,U,53169,999,588,.22105E-2,.43188E-3,0
STARLINK-4095,2022-083AQ,2026-07-06T16:27:10.531584,15.08818443,.0001318,53.1613,344.6688,103.5344,256.5794,0,U,53170,999,21939,.1882E-3,.2707E-4,0
STARLINK-4052,2022-083AR,2026-07-07T04:00:03.000096,15.15062773,.0000529,53.1606,317.1368,65.8895,257.3035,0,U,53171,999,588,.36593E-2,.69622E-3,0
STARLINK-4299,2022-083AS,2026-07-07T04:00:03.000096,15.20160823,.0000718,53.1611,342.1434,137.0449,165.3409,0,U,53172,999,578,.12144E-2,.26381E-3,0
STARLINK-4300,2022-083AT,2026-07-07T04:00:03.000096,15.15149621,.0000639,53.1600,322.3137,65.8829,78.2297,0,U,53173,999,589,.30065E-2,.57189E-3,0
STARLINK-4205,2022-083AU,2026-07-06T22:05:38.015232,15.31698284,.0001067,53.1611,355.8127,81.8524,278.2598,0,U,53174,999,21925,.68046E-5,-.154E-5,0
STARLINK-4292,2022-083AV,2026-07-06T17:20:50.434080,15.08822913,.0001236,53.1617,359.5511,94.4310,265.6822,0,U,53175,999,21918,-.4212E-4,-.958E-5,0
STARLINK-4294,2022-083AW,2026-07-07T04:00:03.000096,15.15005013,.0001923,53.1594,332.3512,102.8060,187.2047,0,U,53176,999,588,.20931E-2,.3946E-3,0
STARLINK-4298,2022-083AX,2026-07-07T04:00:03.000096,15.13957009,.0000375,53.1603,322.3704,80.2423,74.0658,0,U,53177,999,589,.29895E-2,.54958E-3,0
STARLINK-4280,2022-083AY,2026-07-06T17:11:35.167200,15.08824157,.0001054,53.1607,349.5806,70.0085,290.1020,0,U,53178,999,21931,.37973E-3,.5758E-4,0
STARLINK-4276,2022-083AZ,2026-07-07T04:00:03.000096,15.10588677,.0000822,53.1589,307.1193,71.9103,271.5553,0,U,53179,999,578,.45343E-2,.76244E-3,0
STARLINK-4258,2022-083BA,2026-07-06T14:27:15.563808,15.08828408,.0001295,53.1616,309.9621,93.9270,266.1870,0,U,53180,999,21986,.49637E-4,.502E-5,0
STARLINK-4278,2022-083BC,2026-07-07T04:00:03.000096,15.25661017,.0000714,53.1611,321.4624,36.5126,247.0082,0,U,53182,999,563,.27593E-2,.71502E-3,0
STARLINK-4268,2022-083BD,2026-07-07T04:00:03.000096,15.13715102,.0000887,53.1593,312.3082,93.1774,28.7858,0,U,53183,999,589,.37796E-2,.69229E-3,0
STARLINK-4257,2022-083BE,2026-07-06T13:44:50.719200,15.08819080,.0001737,53.1621,309.8096,52.0494,308.0654,0,U,53184,999,21987,.2314E-4,.8E-6,0
STARLINK-4391,2022-084A,2026-07-07T01:11:09.691008,15.05649044,.0001377,97.2848,247.0872,106.9000,253.2378,0,U,53189,999,21801,-.48779E-4,-.76E-5,0
STARLINK-4332,2022-084B,2026-07-07T03:06:48.049056,15.05655265,.000108,97.2843,247.1990,126.5330,233.5997,0,U,53190,999,21802,.63888E-5,.36E-6,0
STARLINK-4369,2022-084C,2026-07-07T04:00:03.000096,15.42826997,.0001371,97.5997,250.1292,79.2659,149.8825,0,U,53191,999,583,.20599E-2,.91118E-3,0
STARLINK-4375,2022-084D,2026-07-07T02:14:57.972192,15.05653268,.00015,97.2834,247.1648,129.8029,230.3331,0,U,53192,999,21801,-.15075E-4,-.274E-5,0
STARLINK-4351,2022-084E,2026-07-07T01:25:11.082720,15.05647447,.0001678,97.2836,246.0025,105.3977,254.7436,0,U,53193,999,21828,-.9162E-4,-.1378E-4,0
STARLINK-4382,2022-084F,2026-07-07T02:38:53.536704,15.05653582,.0001616,97.2845,247.1501,105.0117,255.1289,0,U,53194,999,21734,-.38975E-6,-.62E-6,0
STARLINK-4403,2022-084J,2026-07-06T17:18:41.126976,15.05657123,.000131,97.2822,245.6813,152.5314,207.5983,0,U,53197,999,21721,-.10931E-4,-.214E-5,0
STARLINK-4385,2022-084K,2026-07-06T18:02:33.690048,15.05655121,.0002128,97.2833,245.7935,120.1294,240.0144,0,U,53198,999,21788,-.4522E-4,-.709E-5,0
STARLINK-4395,2022-084L,2026-07-06T18:04:30.088128,15.05653694,.0001333,97.2836,246.8432,97.8511,262.2868,0,U,53199,999,21729,-.26241E-4,-.435E-5,0
STARLINK-4417,2022-084M,2026-07-07T02:30:55.541664,15.05647368,.0001121,97.2836,247.1398,98.7520,261.3835,0,U,53200,999,21800,-.55387E-4,-.855E-5,0
STARLINK-4405,2022-084N,2026-07-07T04:00:03.000096,15.50619148,.0001505,97.5997,251.4125,76.3773,356.6564,0,U,53201,999,594,.9954E-2,.61594E-2,0
STARLINK-4411,2022-084P,2026-07-06T16:12:50.880096,15.05659239,.0001,97.2824,246.7955,100.0930,260.0410,0,U,53202,999,21728,.55496E-5,.24E-6,0
STARLINK-4409,2022-084Q,2026-07-07T03:18:46.185120,15.05652103,.0000982,97.2816,247.2223,96.2752,263.8587,0,U,53203,999,21735,-.44919E-4,-.704E-5,0
STARLINK-4410,2022-084R,2026-07-07T04:00:03.000096,15.41559311,.0001404,97.5998,249.8958,76.2393,28.6542,0,U,53204,999,593,.20843E-2,.88359E-3,0
STARLINK-4397,2022-084S,2026-07-06T17:36:35.929152,15.05653406,.0001957,97.2834,246.8461,118.1135,242.0290,0,U,53205,999,21729,-.53846E-4,-.833E-5,0
