STARLINK-4117           
1 53169U 22083AP  26188.16670139  .00043188  00000+0  22105-2 0  9992
2 53169  53.1609 332.6779 0000995 124.4007 235.8671 15.16223469  5880
STARLINK-4095           
1 53170U 22083AQ  26187.68553856  .00002707  00000+0  18820-3 0  9998
2 53170  53.1613 344.6688 0001318 103.5344 256.5794 15.08818443219393
STARLINK-4052           
1 53171U 22083AR  26188.16670139  .00069622  00000+0  36593-2 0  9992
2 53171  53.1606 317.1368 0000529  65.8895 257.3035 15.15062773  5889
STARLINK-4299           
1 53172U 22083AS  26188.16670139  .00026381  00000+0  12144-2 0  9994
2 53172  53.1611 342.1434 0000718 137.0449 165.3409 15.20160823  5788
STARLINK-4300           
1 53173U 22083AT  26188.16670139  .00057189  00000+0  30065-2 0  9997
2 53173  53.1600 322.3137 0000639  65.8829  78.2297 15.15149621  5895
STARLINK-4205           
1 53174U 22083AU  26187.92057888 -.00000154  00000+0  68046-5 0  9995
2 53174  53.1611 355.8127 0001067  81.8524 278.2598 15.31698284219259
STARLINK-4292           
1 53175U 22083AV  26187.72280595 -.00000958  00000+0 -42120-4 0  9994
2 53175  53.1617 359.5511 0001236  94.4310 265.6822 15.08822913219189
STARLINK-4294           
1 53176U 22083AW  26188.16670139  .00039460  00000+0  20931-2 0  9993
2 53176  53.1594 332.3512 0001923 102.8060 187.2047 15.15005013  5883
STARLINK-4298           
1 53177U 22083AX  26188.16670139  .00054958  00000+0  29895-2 0  9991
2 53177  53.1603 322.3704 0000375  80.2423  74.0658 15.13957009  5890
STARLINK-4280           
1 53178U 22083AY  26187.71637925  .00005758  00000+0  37973-3 0  9999
2 53178  53.1607 349.5806 0001054  70.0085 290.1020 15.08824157219314
STARLINK-4276           
1 53179U 22083AZ  26188.16670139  .00076244  00000+0  45343-2 0  9991
2 53179  53.1589 307.1193 0000822  71.9103 271.5553 15.10588677  5781
STARLINK-4258           
1 53180U 22083BA  26187.60226347  .00000502  00000+0  49637-4 0  9995
2 53180  53.1616 309.9621 0001295  93.9270 266.1870 15.08828408219868
STARLINK-4278           
1 53182U 22083BC  26188.16670139  .00071502  00000+0  27593-2 0  9994
2 53182  53.1611 321.4624 0000714  36.5126 247.0082 15.25661017  5636
STARLINK-4268           
1 53183U 22083BD  26188.16670139  .00069229  00000+0  37796-2 0  9994
2 53183  53.1593 312.3082 0000887  93.1774  28.7858 15.13715102  5897
STARLINK-4257           
1 53184U 22083BE  26187.57280925  .00000080  00000+0  23140-4 0  9999
2 53184  53.1621 309.8096 0001737  52.0494 308.0654 15.08819080219871
STARLINK-4391           
1 53189U 22084A   26188.04941772 -.00000760  00000+0 -48779-4 0  9994
2 53189  97.2848 247.0872 0001377 106.9000 253.2378 15.05649044218010
STARLINK-4332           
1 53190U 22084B   26188.12972279  .00000036  00000+0  63888-5 0  9994
2 53190  97.2843 247.1990 0001080 126.5330 233.5997 15.05655265218025
STARLINK-4369           
1 53191U 22084C   26188.16670139  .00091118  00000+0  20599-2 0  9999
2 53191  97.5997 250.1292 0001371  79.2659 149.8825 15.42826997  5834
STARLINK-4375           
1 53192U 22084D   26188.09372653 -.00000274  00000+0 -15075-4 0  9992
2 53192  97.2834 247.1648 0001500 129.8029 230.3331 15.05653268218012
STARLINK-4351           
1 53193U 22084E   26188.05915605 -.00001378  00000+0 -91620-4 0  9995
2 53193  97.2836 246.0025 0001678 105.3977 254.7436 15.05647447218286
STARLINK-4382           
1 53194U 22084F   26188.11034186 -.00000062  00000+0 -38975-6 0  9994
2 53194  97.2845 247.1501 0001616 105.0117 255.1289 15.05653582217347
STARLINK-4403           
1 53197U 22084J   26187.72130934 -.00000214  00000+0 -10931-4 0  9990
2 53197  97.2822 245.6813 0001310 152.5314 207.5983 15.05657123217214
STARLINK-4385           
1 53198U 22084K   26187.75177882 -.00000709  00000+0 -45220-4 0  9995
2 53198  97.2833 245.7935 0002128 120.1294 240.0144 15.05655121217889
STARLINK-4395           
1 53199U 22084L   26187.75312602 -.00000435  00000+0 -26241-4 0  9995
2 53199  97.2836 246.8432 0001333  97.8511 262.2868 15.05653694217293
STARLINK-4417           
1 53200U 22084M   26188.10480951 -.00000855  00000+0 -55387-4 0  9990
2 53200  97.2836 247.1398 0001121  98.7520 261.3835 15.05647368218001
STARLINK-4405           
1 53201U 22084N   26188.16670139  .00615940  00000+0  99540-2 0  9998
2 53201  97.5997 251.4125 0001505  76.3773 356.6564 15.50619148  5946
STARLINK-4411           
1 53202U 22084P   26187.67558889  .00000024  00000+0  55496-5 0  9997
2 53202  97.2824 246.7955 0001000 100.0930 260.0410 15.05659239217286
STARLINK-4409           
1 53203U 22084Q   26188.13803455 -.00000704  00000+0 -44919-4 0  9996
2 53203  97.2816 247.2223 0000982  96.2752 263.8587 15.05652103217355
STARLINK-4410           
1 53204U 22084R   26188.16670139  .00088359  00000+0  20843-2 0  9999
2 53204  97.5998 249.8958 0001404  76.2393  28.6542 15.41559311  5936
STARLINK-4397           
1 53205U 22084S   26187.73374918 -.00000833  00000+0 -53846-4 0  9992
2 53205  97.2834 246.8461 0001957 118.1135 242.0290 15.05653406217298
